STARLINK-11607 [DTC]    
1 63140U 25043J   26068.55335730  .00361436  00000+0  26782-2 0  9990
2 63140  43.0002 251.2715 0003314 260.0072 100.0422 15.71028221 59457
SILVERSAT               
1 66909U 98067XV  26068.26463686  .00211631  00000+0  15445-2 0  9997
2 66909  51.6252  67.0520 0005527  73.9744 286.1863 15.72057374 15120
